[{"OBJECT_NAME":"ONEWEB-0629","OBJECT_ID":"2023-004AG","EPOCH":"2026-03-12T07:04:37.533504","MEAN_MOTION":13.17647851,"ECCENTRICITY":0.00014974,"INCLINATION":87.9152,"RA_OF_ASC_NODE":25.1121,"ARG_OF_PERICENTER":82.873,"MEAN_ANOMALY":277.2571,"EPHEMERIS_TYPE":0,"CLASSIFICATION_TYPE":"U","NORAD_CAT_ID":55170,"ELEMENT_SET_NO":999,"REV_AT_EPOCH":15482,"BSTAR":0.00022922731,"MEAN_MOTION_DOT":1.02e-6,"MEAN_MOTION_DDOT":0},{"OBJECT_NAME":"ONEWEB-0631","OBJECT_ID":"2023-004AH","EPOCH":"2026-03-12T06:47:08.088864","MEAN_MOTION":13.18685989,"ECCENTRICITY":0.00022472,"INCLINATION":87.9252,"RA_OF_ASC_NODE":354.6816,"ARG_OF_PERICENTER":71.3146,"MEAN_ANOMALY":288.823,"EPHEMERIS_TYPE":0,"CLASSIFICATION_TYPE":"U","NORAD_CAT_ID":55171,"ELEMENT_SET_NO":999,"REV_AT_EPOCH":15690,"BSTAR":0.00029303175,"MEAN_MOTION_DOT":1.28e-6,"MEAN_MOTION_DDOT":0},{"OBJECT_NAME":"ONEWEB-0709","OBJECT_ID":"2023-004AJ","EPOCH":"2026-03-12T07:22:44.245920","MEAN_MOTION":13.11413819,"ECCENTRICITY":0.00027096,"INCLINATION":87.886,"RA_OF_ASC_NODE":40.3439,"ARG_OF_PERICENTER":86.6619,"MEAN_ANOMALY":273.4819,"EPHEMERIS_TYPE":0,"CLASSIFICATION_TYPE":"U","NORAD_CAT_ID":55172,"ELEMENT_SET_NO":999,"REV_AT_EPOCH":15317,"BSTAR":-0.0003597537,"MEAN_MOTION_DOT":-1.15e-6,"MEAN_MOTION_DDOT":0},{"OBJECT_NAME":"ONEWEB-0710","OBJECT_ID":"2023-004AK","EPOCH":"2026-03-12T07:25:17.142816","MEAN_MOTION":13.17648002,"ECCENTRICITY":0.00018313,"INCLINATION":87.9154,"RA_OF_ASC_NODE":25.1046,"ARG_OF_PERICENTER":75.8513,"MEAN_ANOMALY":284.2822,"EPHEMERIS_TYPE":0,"CLASSIFICATION_TYPE":"U","NORAD_CAT_ID":55173,"ELEMENT_SET_NO":999,"REV_AT_EPOCH":15482,"BSTAR":0.00028425755,"MEAN_MOTION_DOT":1.23e-6,"MEAN_MOTION_DDOT":0},{"OBJECT_NAME":"ONEWEB-0711","OBJECT_ID":"2023-004AL","EPOCH":"2026-03-12T06:41:14.054496","MEAN_MOTION":13.11416704,"ECCENTRICITY":0.0001734,"INCLINATION":87.8877,"RA_OF_ASC_NODE":40.3313,"ARG_OF_PERICENTER":57.4058,"MEAN_ANOMALY":302.7237,"EPHEMERIS_TYPE":0,"CLASSIFICATION_TYPE":"U","NORAD_CAT_ID":55174,"ELEMENT_SET_NO":999,"REV_AT_EPOCH":15313,"BSTAR":0.0013999768,"MEAN_MOTION_DOT":5.09e-6,"MEAN_MOTION_DDOT":0},{"OBJECT_NAME":"ONEWEB-0713","OBJECT_ID":"2023-004AM","EPOCH":"2026-03-12T07:08:05.162208","MEAN_MOTION":13.11414797,"ECCENTRICITY":0.00017513,"INCLINATION":87.8871,"RA_OF_ASC_NODE":40.3273,"ARG_OF_PERICENTER":70.5031,"MEAN_ANOMALY":289.6286,"EPHEMERIS_TYPE":0,"CLASSIFICATION_TYPE":"U","NORAD_CAT_ID":55175,"ELEMENT_SET_NO":999,"REV_AT_EPOCH":15312,"BSTAR":0.00097363675,"MEAN_MOTION_DOT":3.58e-6,"MEAN_MOTION_DDOT":0},{"OBJECT_NAME":"ONEWEB-0715","OBJECT_ID":"2023-004AN","EPOCH":"2026-03-12T07:00:45.954720","MEAN_MOTION":13.11415795,"ECCENTRICITY":0.00025431,"INCLINATION":87.8869,"RA_OF_ASC_NODE":40.3283,"ARG_OF_PERICENTER":79.6476,"MEAN_ANOMALY":280.4938,"EPHEMERIS_TYPE":0,"CLASSIFICATION_TYPE":"U","NORAD_CAT_ID":55176,"ELEMENT_SET_NO":999,"REV_AT_EPOCH":15316,"BSTAR":0.0014410556,"MEAN_MOTION_DOT":5.23e-6,"MEAN_MOTION_DDOT":0},{"OBJECT_NAME":"ONEWEB-0716","OBJECT_ID":"2023-004AP","EPOCH":"2026-03-12T07:15:35.523936","MEAN_MOTION":13.17648926,"ECCENTRICITY":0.00017954,"INCLINATION":87.9153,"RA_OF_ASC_NODE":25.106,"ARG_OF_PERICENTER":88.3168,"MEAN_ANOMALY":271.8169,"EPHEMERIS_TYPE":0,"CLASSIFICATION_TYPE":"U","NORAD_CAT_ID":55177,"ELEMENT_SET_NO":999,"REV_AT_EPOCH":15482,"BSTAR":0.00023202402,"MEAN_MOTION_DOT":1.03e-6,"MEAN_MOTION_DDOT":0},{"OBJECT_NAME":"ONEWEB-0717","OBJECT_ID":"2023-004AQ","EPOCH":"2026-03-12T06:51:16.680672","MEAN_MOTION":13.17648282,"ECCENTRICITY":0.00018976,"INCLINATION":87.9165,"RA_OF_ASC_NODE":25.0892,"ARG_OF_PERICENTER":58.8917,"MEAN_ANOMALY":301.24,"EPHEMERIS_TYPE":0,"CLASSIFICATION_TYPE":"U","NORAD_CAT_ID":55178,"ELEMENT_SET_NO":999,"REV_AT_EPOCH":15487,"BSTAR":0.00015414491,"MEAN_MOTION_DOT":7.3e-7,"MEAN_MOTION_DDOT":0},{"OBJECT_NAME":"ONEWEB-0719","OBJECT_ID":"2023-004AR","EPOCH":"2026-03-12T07:05:50.597664","MEAN_MOTION":13.17647918,"ECCENTRICITY":0.00016964,"INCLINATION":87.9164,"RA_OF_ASC_NODE":25.0686,"ARG_OF_PERICENTER":83.8598,"MEAN_ANOMALY":276.2727,"EPHEMERIS_TYPE":0,"CLASSIFICATION_TYPE":"U","NORAD_CAT_ID":55179,"ELEMENT_SET_NO":999,"REV_AT_EPOCH":15482,"BSTAR":0.00034920213,"MEAN_MOTION_DOT":1.48e-6,"MEAN_MOTION_DDOT":0},{"OBJECT_NAME":"ONEWEB-0530","OBJECT_ID":"2023-029A","EPOCH":"2026-03-12T02:55:19.746048","MEAN_MOTION":13.20770236,"ECCENTRICITY":0.00013074,"INCLINATION":87.9158,"RA_OF_ASC_NODE":293.8601,"ARG_OF_PERICENTER":69.2828,"MEAN_ANOMALY":290.8445,"EPHEMERIS_TYPE":0,"CLASSIFICATION_TYPE":"U","NORAD_CAT_ID":55796,"ELEMENT_SET_NO":999,"REV_AT_EPOCH":14833,"BSTAR":0.00017660499,"MEAN_MOTION_DOT":8.5e-7,"MEAN_MOTION_DDOT":0},{"OBJECT_NAME":"ONEWEB-0534","OBJECT_ID":"2023-029B","EPOCH":"2026-03-12T02:37:09.146496","MEAN_MOTION":13.207703,"ECCENTRICITY":0.00015929,"INCLINATION":87.9158,"RA_OF_ASC_NODE":293.861,"ARG_OF_PERICENTER":90.0527,"MEAN_ANOMALY":270.0789,"EPHEMERIS_TYPE":0,"CLASSIFICATION_TYPE":"U","NORAD_CAT_ID":55797,"ELEMENT_SET_NO":999,"REV_AT_EPOCH":14833,"BSTAR":0.00020564409,"MEAN_MOTION_DOT":9.7e-7,"MEAN_MOTION_DDOT":0},{"OBJECT_NAME":"ONEWEB-0556","OBJECT_ID":"2023-029C","EPOCH":"2026-03-12T02:46:14.879136","MEAN_MOTION":13.20770525,"ECCENTRICITY":0.00010053,"INCLINATION":87.9157,"RA_OF_ASC_NODE":293.8623,"ARG_OF_PERICENTER":116.607,"MEAN_ANOMALY":243.5167,"EPHEMERIS_TYPE":0,"CLASSIFICATION_TYPE":"U","NORAD_CAT_ID":55798,"ELEMENT_SET_NO":999,"REV_AT_EPOCH":14833,"BSTAR":0.00017129604,"MEAN_MOTION_DOT":8.3e-7,"MEAN_MOTION_DDOT":0},{"OBJECT_NAME":"ONEWEB-0562","OBJECT_ID":"2023-029D","EPOCH":"2026-03-12T02:28:03.495936","MEAN_MOTION":13.20770428,"ECCENTRICITY":8.601e-5,"INCLINATION":87.9155,"RA_OF_ASC_NODE":293.8448,"ARG_OF_PERICENTER":64.6878,"MEAN_ANOMALY":295.4345,"EPHEMERIS_TYPE":0,"CLASSIFICATION_TYPE":"U","NORAD_CAT_ID":55799,"ELEMENT_SET_NO":999,"REV_AT_EPOCH":14833,"BSTAR":0.00034326554,"MEAN_MOTION_DOT":1.53e-6,"MEAN_MOTION_DDOT":0},{"OBJECT_NAME":"ONEWEB-0563","OBJECT_ID":"2023-029E","EPOCH":"2026-03-12T02:18:57.331296","MEAN_MOTION":13.20773096,"ECCENTRICITY":0.00016116,"INCLINATION":87.9155,"RA_OF_ASC_NODE":293.8766,"ARG_OF_PERICENTER":94.2781,"MEAN_ANOMALY":265.8537,"EPHEMERIS_TYPE":0,"CLASSIFICATION_TYPE":"U","NORAD_CAT_ID":55800,"ELEMENT_SET_NO":999,"REV_AT_EPOCH":14832,"BSTAR":0.000317016,"MEAN_MOTION_DOT":1.42e-6,"MEAN_MOTION_DDOT":0},{"OBJECT_NAME":"ONEWEB-0564","OBJECT_ID":"2023-029F","EPOCH":"2026-03-12T03:58:58.065312","MEAN_MOTION":13.20770372,"ECCENTRICITY":0.00013493,"INCLINATION":87.9153,"RA_OF_ASC_NODE":293.8349,"ARG_OF_PERICENTER":76.3362,"MEAN_ANOMALY":283.7921,"EPHEMERIS_TYPE":0,"CLASSIFICATION_TYPE":"U","NORAD_CAT_ID":55801,"ELEMENT_SET_NO":999,"REV_AT_EPOCH":14834,"BSTAR":0.00010479197,"MEAN_MOTION_DOT":5.6e-7,"MEAN_MOTION_DDOT":0},{"OBJECT_NAME":"ONEWEB-0638","OBJECT_ID":"2023-029G","EPOCH":"2026-03-12T04:34:32.921184","MEAN_MOTION":13.14503983,"ECCENTRICITY":0.00010535,"INCLINATION":87.8972,"RA_OF_ASC_NODE":309.1165,"ARG_OF_PERICENTER":88.3327,"MEAN_ANOMALY":271.7923,"EPHEMERIS_TYPE":0,"CLASSIFICATION_TYPE":"U","NORAD_CAT_ID":55802,"ELEMENT_SET_NO":999,"REV_AT_EPOCH":14665,"BSTAR":0.00047291426,"MEAN_MOTION_DOT":1.88e-6,"MEAN_MOTION_DDOT":0},{"OBJECT_NAME":"ONEWEB-0639","OBJECT_ID":"2023-029H","EPOCH":"2026-03-12T05:07:58.710144","MEAN_MOTION":13.1972511,"ECCENTRICITY":0.00023553,"INCLINATION":87.9225,"RA_OF_ASC_NODE":324.3006,"ARG_OF_PERICENTER":102.7809,"MEAN_ANOMALY":257.3587,"EPHEMERIS_TYPE":0,"CLASSIFICATION_TYPE":"U","NORAD_CAT_ID":55803,"ELEMENT_SET_NO":999,"REV_AT_EPOCH":14611,"BSTAR":7.783871e-6,"MEAN_MOTION_DOT":1.6e-7,"MEAN_MOTION_DDOT":0},{"OBJECT_NAME":"ONEWEB-0640","OBJECT_ID":"2023-029J","EPOCH":"2026-03-12T04:48:14.706144","MEAN_MOTION":13.14502332,"ECCENTRICITY":0.00012404,"INCLINATION":87.8976,"RA_OF_ASC_NODE":309.1048,"ARG_OF_PERICENTER":109.0428,"MEAN_ANOMALY":251.0837,"EPHEMERIS_TYPE":0,"CLASSIFICATION_TYPE":"U","NORAD_CAT_ID":55804,"ELEMENT_SET_NO":999,"REV_AT_EPOCH":14667,"BSTAR":0.00024946779,"MEAN_MOTION_DOT":1.05e-6,"MEAN_MOTION_DDOT":0},{"OBJECT_NAME":"ONEWEB-0641","OBJECT_ID":"2023-029K","EPOCH":"2026-03-12T05:01:08.578848","MEAN_MOTION":13.19724362,"ECCENTRICITY":0.00018536,"INCLINATION":87.9228,"RA_OF_ASC_NODE":324.2884,"ARG_OF_PERICENTER":82.6467,"MEAN_ANOMALY":277.4876,"EPHEMERIS_TYPE":0,"CLASSIFICATION_TYPE":"U","NORAD_CAT_ID":55805,"ELEMENT_SET_NO":999,"REV_AT_EPOCH":14612,"BSTAR":6.0409568e-5,"MEAN_MOTION_DOT":3.7e-7,"MEAN_MOTION_DDOT":0},{"OBJECT_NAME":"ONEWEB-0642","OBJECT_ID":"2023-029L","EPOCH":"2026-03-12T04:54:19.160352","MEAN_MOTION":13.19724112,"ECCENTRICITY":0.00023846,"INCLINATION":87.9226,"RA_OF_ASC_NODE":324.3038,"ARG_OF_PERICENTER":95.4313,"MEAN_ANOMALY":264.7092,"EPHEMERIS_TYPE":0,"CLASSIFICATION_TYPE":"U","NORAD_CAT_ID":55806,"ELEMENT_SET_NO":999,"REV_AT_EPOCH":14611,"BSTAR":0.00010392368,"MEAN_MOTION_DOT":5.5e-7,"MEAN_MOTION_DDOT":0},{"OBJECT_NAME":"ONEWEB-0643","OBJECT_ID":"2023-029M","EPOCH":"2026-03-12T04:04:51.885408","MEAN_MOTION":13.14503321,"ECCENTRICITY":0.00022937,"INCLINATION":87.8975,"RA_OF_ASC_NODE":309.098,"ARG_OF_PERICENTER":88.9822,"MEAN_ANOMALY":271.1571,"EPHEMERIS_TYPE":0,"CLASSIFICATION_TYPE":"U","NORAD_CAT_ID":55807,"ELEMENT_SET_NO":999,"REV_AT_EPOCH":14664,"BSTAR":0.00059646694,"MEAN_MOTION_DOT":2.34e-6,"MEAN_MOTION_DDOT":0},{"OBJECT_NAME":"ONEWEB-0644","OBJECT_ID":"2023-029N","EPOCH":"2026-03-12T04:47:30.365664","MEAN_MOTION":13.19724603,"ECCENTRICITY":0.00020204,"INCLINATION":87.9217,"RA_OF_ASC_NODE":324.3113,"ARG_OF_PERICENTER":86.561,"MEAN_ANOMALY":273.5754,"EPHEMERIS_TYPE":0,"CLASSIFICATION_TYPE":"U","NORAD_CAT_ID":55808,"ELEMENT_SET_NO":999,"REV_AT_EPOCH":14611,"BSTAR":0.00038305124,"MEAN_MOTION_DOT":1.66e-6,"MEAN_MOTION_DDOT":0}]
